CCSDS_OMM_VERS = 2.0
CREATION_DATE  = 
ORIGINATOR     = 

OBJECT_NAME    = STARLINK-35196
OBJECT_ID      = 2025-232C
CENTER_NAME    = EARTH
REF_FRAME      = TEME
TIME_SYSTEM    = UTC
MEAN_ELEMENT_THEORY = SGP/SGP4

EPOCH          = 2025-11-12T20:00:03.000384
MEAN_MOTION    = 15.39536913
ECCENTRICITY   = .0001068
INCLINATION    = 53.1599
RA_OF_ASC_NODE = 288.3833
ARG_OF_PERICENTER = 119.5957
MEAN_ANOMALY   = 129.7586

EPHEMERIS_TYPE = 0
CLASSIFICATION_TYPE = U
NORAD_CAT_ID   = 66007
ELEMENT_SET_NO = 999
REV_AT_EPOCH   = 473
BSTAR          = .25122E-2
MEAN_MOTION_DOT = .101153E-2
MEAN_MOTION_DDOT = 0

CCSDS_OMM_VERS = 2.0
CREATION_DATE  = 
ORIGINATOR     = 

OBJECT_NAME    = STARLINK-35236
OBJECT_ID      = 2025-232D
CENTER_NAME    = EARTH
REF_FRAME      = TEME
TIME_SYSTEM    = UTC
MEAN_ELEMENT_THEORY = SGP/SGP4

EPOCH          = 2025-11-12T15:18:27.229824
MEAN_MOTION    = 15.49419802
ECCENTRICITY   = .0001469
INCLINATION    = 53.1589
RA_OF_ASC_NODE = 289.0763
ARG_OF_PERICENTER = 90.7040
MEAN_ANOMALY   = 269.4138

EPHEMERIS_TYPE = 0
CLASSIFICATION_TYPE = U
NORAD_CAT_ID   = 66008
ELEMENT_SET_NO = 999
REV_AT_EPOCH   = 547
BSTAR          = .24941E-2
MEAN_MOTION_DOT = .141353E-2
MEAN_MOTION_DDOT = 0

CCSDS_OMM_VERS = 2.0
CREATION_DATE  = 
ORIGINATOR     = 

OBJECT_NAME    = STARLINK-35276
OBJECT_ID      = 2025-232E
CENTER_NAME    = EARTH
REF_FRAME      = TEME
TIME_SYSTEM    = UTC
MEAN_ELEMENT_THEORY = SGP/SGP4

EPOCH          = 2025-11-12T05:07:25.384800
MEAN_MOTION    = 15.39637000
ECCENTRICITY   = .00011741
INCLINATION    = 53.1598
RA_OF_ASC_NODE = 291.4080
ARG_OF_PERICENTER = 81.9228
MEAN_ANOMALY   = 278.1910

EPHEMERIS_TYPE = 0
CLASSIFICATION_TYPE = U
NORAD_CAT_ID   = 66009
ELEMENT_SET_NO = 999
REV_AT_EPOCH   = 540
BSTAR          = .25306955E-2
MEAN_MOTION_DOT = .102251E-2
MEAN_MOTION_DDOT = 0

CCSDS_OMM_VERS = 2.0
CREATION_DATE  = 
ORIGINATOR     = 

OBJECT_NAME    = STARLINK-35297
OBJECT_ID      = 2025-232F
CENTER_NAME    = EARTH
REF_FRAME      = TEME
TIME_SYSTEM    = UTC
MEAN_ELEMENT_THEORY = SGP/SGP4

EPOCH          = 2025-11-12T20:00:03.000384
MEAN_MOTION    = 15.44800482
ECCENTRICITY   = .0001196
INCLINATION    = 53.1586
RA_OF_ASC_NODE = 288.1489
ARG_OF_PERICENTER = 103.8213
MEAN_ANOMALY   = 263.4006

EPHEMERIS_TYPE = 0
CLASSIFICATION_TYPE = U
NORAD_CAT_ID   = 66010
ELEMENT_SET_NO = 999
REV_AT_EPOCH   = 473
BSTAR          = -.46794E-1
MEAN_MOTION_DOT = -.1987322E-1
MEAN_MOTION_DDOT = 0

CCSDS_OMM_VERS = 2.0
CREATION_DATE  = 
ORIGINATOR     = 

OBJECT_NAME    = STARLINK-35256
OBJECT_ID      = 2025-232G
CENTER_NAME    = EARTH
REF_FRAME      = TEME
TIME_SYSTEM    = UTC
MEAN_ELEMENT_THEORY = SGP/SGP4

EPOCH          = 2025-11-12T20:00:03.000384
MEAN_MOTION    = 15.39525996
ECCENTRICITY   = .0001861
INCLINATION    = 53.1597
RA_OF_ASC_NODE = 288.3300
ARG_OF_PERICENTER = 87.6682
MEAN_ANOMALY   = 187.4546

EPHEMERIS_TYPE = 0
CLASSIFICATION_TYPE = U
NORAD_CAT_ID   = 66011
ELEMENT_SET_NO = 999
REV_AT_EPOCH   = 473
BSTAR          = .26987E-2
MEAN_MOTION_DOT = .108763E-2
MEAN_MOTION_DDOT = 0

CCSDS_OMM_VERS = 2.0
CREATION_DATE  = 
ORIGINATOR     = 

OBJECT_NAME    = STARLINK-35293
OBJECT_ID      = 2025-232H
CENTER_NAME    = EARTH
REF_FRAME      = TEME
TIME_SYSTEM    = UTC
MEAN_ELEMENT_THEORY = SGP/SGP4

EPOCH          = 2025-11-12T20:00:03.000384
MEAN_MOTION    = 15.39479844
ECCENTRICITY   = .0000925
INCLINATION    = 53.1592
RA_OF_ASC_NODE = 288.2794
ARG_OF_PERICENTER = 120.8946
MEAN_ANOMALY   = 180.0811

EPHEMERIS_TYPE = 0
CLASSIFICATION_TYPE = U
NORAD_CAT_ID   = 66012
ELEMENT_SET_NO = 999
REV_AT_EPOCH   = 473
BSTAR          = .27418E-2
MEAN_MOTION_DOT = .110359E-2
MEAN_MOTION_DDOT = 0

CCSDS_OMM_VERS = 2.0
CREATION_DATE  = 
ORIGINATOR     = 

OBJECT_NAME    = STARLINK-35307
OBJECT_ID      = 2025-232J
CENTER_NAME    = EARTH
REF_FRAME      = TEME
TIME_SYSTEM    = UTC
MEAN_ELEMENT_THEORY = SGP/SGP4

EPOCH          = 2025-11-12T05:14:06.772416
MEAN_MOTION    = 15.39649380
ECCENTRICITY   = .00012807
INCLINATION    = 53.1602
RA_OF_ASC_NODE = 291.4379
ARG_OF_PERICENTER = 68.5693
MEAN_ANOMALY   = 291.5448

EPHEMERIS_TYPE = 0
CLASSIFICATION_TYPE = U
NORAD_CAT_ID   = 66013
ELEMENT_SET_NO = 999
REV_AT_EPOCH   = 542
BSTAR          = .33407616E-2
MEAN_MOTION_DOT = .135764E-2
MEAN_MOTION_DDOT = 0

CCSDS_OMM_VERS = 2.0
CREATION_DATE  = 
ORIGINATOR     = 

OBJECT_NAME    = STARLINK-35395
OBJECT_ID      = 2025-232K
CENTER_NAME    = EARTH
REF_FRAME      = TEME
TIME_SYSTEM    = UTC
MEAN_ELEMENT_THEORY = SGP/SGP4

EPOCH          = 2025-11-12T20:00:03.000384
MEAN_MOTION    = 15.39517593
ECCENTRICITY   = .0001206
INCLINATION    = 53.1596
RA_OF_ASC_NODE = 288.4336
ARG_OF_PERICENTER = 102.1865
MEAN_ANOMALY   = 121.4168

EPHEMERIS_TYPE = 0
CLASSIFICATION_TYPE = U
NORAD_CAT_ID   = 66014
ELEMENT_SET_NO = 999
REV_AT_EPOCH   = 472
BSTAR          = .25785E-2
MEAN_MOTION_DOT = .103802E-2
MEAN_MOTION_DDOT = 0

CCSDS_OMM_VERS = 2.0
CREATION_DATE  = 
ORIGINATOR     = 

OBJECT_NAME    = STARLINK-34622
OBJECT_ID      = 2025-232L
CENTER_NAME    = EARTH
REF_FRAME      = TEME
TIME_SYSTEM    = UTC
MEAN_ELEMENT_THEORY = SGP/SGP4

EPOCH          = 2025-11-12T15:14:00.233088
MEAN_MOTION    = 15.49438128
ECCENTRICITY   = .0001669
INCLINATION    = 53.1589
RA_OF_ASC_NODE = 289.0560
ARG_OF_PERICENTER = 99.5292
MEAN_ANOMALY   = 260.5906

EPHEMERIS_TYPE = 0
CLASSIFICATION_TYPE = U
NORAD_CAT_ID   = 66015
ELEMENT_SET_NO = 999
REV_AT_EPOCH   = 548
BSTAR          = .35447E-2
MEAN_MOTION_DOT = .202813E-2
MEAN_MOTION_DDOT = 0

CCSDS_OMM_VERS = 2.0
CREATION_DATE  = 
ORIGINATOR     = 

OBJECT_NAME    = STARLINK-35243
OBJECT_ID      = 2025-232M
CENTER_NAME    = EARTH
REF_FRAME      = TEME
TIME_SYSTEM    = UTC
MEAN_ELEMENT_THEORY = SGP/SGP4

EPOCH          = 2025-11-12T15:14:29.681664
MEAN_MOTION    = 15.49407554
ECCENTRICITY   = .0001119
INCLINATION    = 53.1592
RA_OF_ASC_NODE = 289.0573
ARG_OF_PERICENTER = 98.7115
MEAN_ANOMALY   = 261.4021

EPHEMERIS_TYPE = 0
CLASSIFICATION_TYPE = U
NORAD_CAT_ID   = 66016
ELEMENT_SET_NO = 999
REV_AT_EPOCH   = 549
BSTAR          = .21676E-2
MEAN_MOTION_DOT = .122436E-2
MEAN_MOTION_DDOT = 0

CCSDS_OMM_VERS = 2.0
CREATION_DATE  = 
ORIGINATOR     = 

OBJECT_NAME    = STARLINK-35398
OBJECT_ID      = 2025-232N
CENTER_NAME    = EARTH
REF_FRAME      = TEME
TIME_SYSTEM    = UTC
MEAN_ELEMENT_THEORY = SGP/SGP4

EPOCH          = 2025-11-12T05:14:35.736288
MEAN_MOTION    = 15.39627750
ECCENTRICITY   = .00013316
INCLINATION    = 53.1604
RA_OF_ASC_NODE = 291.4384
ARG_OF_PERICENTER = 78.3238
MEAN_ANOMALY   = 281.7917

EPHEMERIS_TYPE = 0
CLASSIFICATION_TYPE = U
NORAD_CAT_ID   = 66017
ELEMENT_SET_NO = 999
REV_AT_EPOCH   = 542
BSTAR          = .27819386E-2
MEAN_MOTION_DOT = .112561E-2
MEAN_MOTION_DDOT = 0

CCSDS_OMM_VERS = 2.0
CREATION_DATE  = 
ORIGINATOR     = 

OBJECT_NAME    = STARLINK-35376
OBJECT_ID      = 2025-232P
CENTER_NAME    = EARTH
REF_FRAME      = TEME
TIME_SYSTEM    = UTC
MEAN_ELEMENT_THEORY = SGP/SGP4

EPOCH          = 2025-11-12T20:00:03.000384
MEAN_MOTION    = 15.39533205
ECCENTRICITY   = .0001236
INCLINATION    = 53.1584
RA_OF_ASC_NODE = 288.1770
ARG_OF_PERICENTER = 109.0790
MEAN_ANOMALY   = 243.2677

EPHEMERIS_TYPE = 0
CLASSIFICATION_TYPE = U
NORAD_CAT_ID   = 66018
ELEMENT_SET_NO = 999
REV_AT_EPOCH   = 473
BSTAR          = .34182E-2
MEAN_MOTION_DOT = .138439E-2
MEAN_MOTION_DDOT = 0

