STARLINK-35196          
1 66007U 25232C   25316.83336806  .00101153  00000+0  25122-2 0  9991
2 66007  53.1599 288.3833 0001068 119.5957 129.7586 15.39536913  4737
STARLINK-35236          
1 66008U 25232D   25316.63781516  .00141353  00000+0  24941-2 0  9996
2 66008  53.1589 289.0763 0001469  90.7040 269.4138 15.49419802  5470
STARLINK-35276          
1 66009U 25232E   25316.21348825  .00102251  00000+0  25307-2 0  9994
2 66009  53.1598 291.4080 0001174  81.9228 278.1910 15.39637000  5402
STARLINK-35297          
1 66010U 25232F   25316.83336806 -.01987322  00000+0 -46794-1 0  9995
2 66010  53.1586 288.1489 0001196 103.8213 263.4006 15.44800482  4739
STARLINK-35256          
1 66011U 25232G   25316.83336806  .00108763  00000+0  26987-2 0  9990
2 66011  53.1597 288.3300 0001861  87.6682 187.4546 15.39525996  4736
STARLINK-35293          
1 66012U 25232H   25316.83336806  .00110359  00000+0  27418-2 0  9995
2 66012  53.1592 288.2794 0000925 120.8946 180.0811 15.39479844  4735
STARLINK-35307          
1 66013U 25232J   25316.21813394  .00135764  00000+0  33408-2 0  9993
2 66013  53.1602 291.4379 0001280  68.5693 291.5448 15.39649380  5420
STARLINK-35395          
1 66014U 25232K   25316.83336806  .00103802  00000+0  25785-2 0  9997
2 66014  53.1596 288.4336 0001206 102.1865 121.4168 15.39517593  4728
STARLINK-34622          
1 66015U 25232L   25316.63472492  .00202813  00000+0  35447-2 0  9996
2 66015  53.1589 289.0560 0001669  99.5292 260.5906 15.49438128  5489
STARLINK-35243          
1 66016U 25232M   25316.63506576  .00122436  00000+0  21676-2 0  9999
2 66016  53.1592 289.0573 0001119  98.7115 261.4021 15.49407554  5491
STARLINK-35398          
1 66017U 25232N   25316.21846917  .00112561  00000+0  27819-2 0  9993
2 66017  53.1604 291.4384 0001331  78.3238 281.7917 15.39627750  5422
STARLINK-35376          
1 66018U 25232P   25316.83336806  .00138439  00000+0  34182-2 0  9996
2 66018  53.1584 288.1770 0001236 109.0790 243.2677 15.39533205  4731
